{
"type": "FeatureCollection",
"name": "pariwisata_braga",
"crs": { "type": "name", "properties": { "name": "urn:ogc:def:crs:OGC:1.3:CRS84" } },
"features": [
{ "type": "Feature", "properties": { "NAMA": "GEDUNG YPK", "TIPE_1": "PARIWISATA & HIBURAN", "TIPE_2": "TEMPAT HIBURAN", "TIPE_3": "TEATER KESENIAN", "TELEPON": "0858-6495-6707", "ALAMAT": "JL. NARIPAN NO.7-9, BRAGA, KEC. SUMUR BANDUNG, KOTA BANDUNG, JAWA BARAT 40111", "ID_PROV": "32", "PROVINSI": "JAWA BARAT", "ID_KABKOT": "32.73", "KABKOT": "KOTA BANDUNG", "ID_KEC": "32.73.19", "KECAMATAN": "SUMUR BANDUNG", "ID_DESA": "32.73.19.1001", "DESA": "BRAGA", "LONGITUDE": "107.6102048", "LATITUDE": "-6.919666", "WAKTU": "Q2 2024" }, "geometry": { "type": "MultiPoint", "coordinates": [ [ 107.6102048, -6.919666 ] ] } },
{ "type": "Feature", "properties": { "NAMA": "GEDUNG GAS NEGARA", "TIPE_1": "PARIWISATA & HIBURAN", "TIPE_2": "TEMPAT WISATA BUDAYA DAN SEJARAH", "TIPE_3": "SITUS SEJARAH", "TELEPON": null, "ALAMAT": "JL. BRAGA NO.40, BRAGA, KEC. SUMUR BANDUNG, KOTA BANDUNG, JAWA BARAT 40111", "ID_PROV": "32", "PROVINSI": "JAWA BARAT", "ID_KABKOT": "32.73", "KABKOT": "KOTA BANDUNG", "ID_KEC": "32.73.19", "KECAMATAN": "SUMUR BANDUNG", "ID_DESA": "32.73.19.1001", "DESA": "BRAGA", "LONGITUDE": "107.6096343", "LATITUDE": "-6.9183766", "WAKTU": "Q2 2024" }, "geometry": { "type": "MultiPoint", "coordinates": [ [ 107.6096343, -6.9183766 ] ] } },
{ "type": "Feature", "properties": { "NAMA": "PURA PUSER DAYEUH SILIWANGI", "TIPE_1": "PARIWISATA & HIBURAN", "TIPE_2": "TEMPAT WISATA BUDAYA DAN SEJARAH", "TIPE_3": "KUIL", "TELEPON": null, "ALAMAT": "JL. LEMBONG NO.38, BRAGA, KEC. SUMUR BANDUNG, KOTA BANDUNG, JAWA BARAT 40111", "ID_PROV": "32", "PROVINSI": "JAWA BARAT", "ID_KABKOT": "32.73", "KABKOT": "KOTA BANDUNG", "ID_KEC": "32.73.19", "KECAMATAN": "SUMUR BANDUNG", "ID_DESA": "32.73.19.1001", "DESA": "BRAGA", "LONGITUDE": "107.611264", "LATITUDE": "-6.9176854", "WAKTU": "Q2 2024" }, "geometry": { "type": "MultiPoint", "coordinates": [ [ 107.611264, -6.9176854 ] ] } },
{ "type": "Feature", "properties": { "NAMA": "MONUMEN DASASILA BANDUNG", "TIPE_1": "PARIWISATA & HIBURAN", "TIPE_2": "TEMPAT WISATA BUDAYA DAN SEJARAH", "TIPE_3": "MONUMEN DAN PATUNG", "TELEPON": null, "ALAMAT": "3JH5+FFM, JL. ASIA AFRIKA, KB. PISANG, KEC. SUMUR BANDUNG, KOTA BANDUNG, JAWA BARAT 40251", "ID_PROV": "32", "PROVINSI": "JAWA BARAT", "ID_KABKOT": "32.73", "KABKOT": "KOTA BANDUNG", "ID_KEC": "32.73.19", "KECAMATAN": "SUMUR BANDUNG", "ID_DESA": "32.73.19.1001", "DESA": "BRAGA", "LONGITUDE": "107.6086787", "LATITUDE": "-6.9212773", "WAKTU": "Q2 2024" }, "geometry": { "type": "MultiPoint", "coordinates": [ [ 107.6086787, -6.9212773 ] ] } },
{ "type": "Feature", "properties": { "NAMA": "MUSEUM KONPERENSI ASIA AFRIKA", "TIPE_1": "PARIWISATA & HIBURAN", "TIPE_2": "TEMPAT WISATA BUDAYA DAN SEJARAH", "TIPE_3": "MUSEUM", "TELEPON": "(022) 42690705", "ALAMAT": "JL. ASIA AFRIKA NO.65, BRAGA, KEC. SUMUR BANDUNG, KOTA BANDUNG, JAWA BARAT 40111", "ID_PROV": "32", "PROVINSI": "JAWA BARAT", "ID_KABKOT": "32.73", "KABKOT": "KOTA BANDUNG", "ID_KEC": "32.73.19", "KECAMATAN": "SUMUR BANDUNG", "ID_DESA": "32.73.19.1001", "DESA": "BRAGA", "LONGITUDE": "107.6095853", "LATITUDE": "-6.921237", "WAKTU": "Q2 2024" }, "geometry": { "type": "MultiPoint", "coordinates": [ [ 107.6095853, -6.921237 ] ] } },
{ "type": "Feature", "properties": { "NAMA": "MUSEUM MANDALA WANGSIT SILIWANGI", "TIPE_1": "PARIWISATA & HIBURAN", "TIPE_2": "TEMPAT WISATA BUDAYA DAN SEJARAH", "TIPE_3": "MUSEUM", "TELEPON": "(022) 4203393", "ALAMAT": "JL. LEMBONG NO.38, BRAGA, KEC. SUMUR BANDUNG, KOTA BANDUNG, JAWA BARAT 40111", "ID_PROV": "32", "PROVINSI": "JAWA BARAT", "ID_KABKOT": "32.73", "KABKOT": "KOTA BANDUNG", "ID_KEC": "32.73.19", "KECAMATAN": "SUMUR BANDUNG", "ID_DESA": "32.73.19.1001", "DESA": "BRAGA", "LONGITUDE": "107.6110696", "LATITUDE": "-6.9173255", "WAKTU": "Q2 2024" }, "geometry": { "type": "MultiPoint", "coordinates": [ [ 107.6110696, -6.9173255 ] ] } },
{ "type": "Feature", "properties": { "NAMA": "MUSEUM WOLFF SCHOEMAKER (PREANGER)", "TIPE_1": "PARIWISATA & HIBURAN", "TIPE_2": "TEMPAT WISATA BUDAYA DAN SEJARAH", "TIPE_3": "MUSEUM", "TELEPON": null, "ALAMAT": "JL. ASIA AFRIKA NO.81, BRAGA, KEC. SUMUR BANDUNG, KOTA BANDUNG, JAWA BARAT 40112", "ID_PROV": "32", "PROVINSI": "JAWA BARAT", "ID_KABKOT": "32.73", "KABKOT": "KOTA BANDUNG", "ID_KEC": "32.73.19", "KECAMATAN": "SUMUR BANDUNG", "ID_DESA": "32.73.19.1001", "DESA": "BRAGA", "LONGITUDE": "107.6118116", "LATITUDE": "-6.9210029", "WAKTU": "Q2 2024" }, "geometry": { "type": "MultiPoint", "coordinates": [ [ 107.6118116, -6.9210029 ] ] } },
{ "type": "Feature", "properties": { "NAMA": "BRAGA CITY WALK", "TIPE_1": "PARIWISATA & HIBURAN", "TIPE_2": "BIOSKOP", "TIPE_3": "XXI", "TELEPON": "(022) 84460121", "ALAMAT": "CITY WALK, CITY WALK, JL. BRAGA NO.99-101, BRAGA, KEC. SUMUR BANDUNG, KOTA BANDUNG, JAWA BARAT 40111", "ID_PROV": "32", "PROVINSI": "JAWA BARAT", "ID_KABKOT": "32.73", "KABKOT": "KOTA BANDUNG", "ID_KEC": "32.73.19", "KECAMATAN": "SUMUR BANDUNG", "ID_DESA": "32.73.19.1001", "DESA": "BRAGA", "LONGITUDE": "107.6086045", "LATITUDE": "-6.9170768", "WAKTU": "Q2 2024" }, "geometry": { "type": "MultiPoint", "coordinates": [ [ 107.6086045, -6.9170768 ] ] } },
{ "type": "Feature", "properties": { "NAMA": "TAMAN BRAGA", "TIPE_1": "PARIWISATA & HIBURAN", "TIPE_2": "TEMPAT HIBURAN", "TIPE_3": "TAMAN KOTA", "TELEPON": null, "ALAMAT": "JL. USTADZ ABDUL SOMAD LC. NO.12, BRAGA, KEC. SUMUR BANDUNG, KOTA BANDUNG, JAWA BARAT 40111", "ID_PROV": "32", "PROVINSI": "JAWA BARAT", "ID_KABKOT": "32.73", "KABKOT": "KOTA BANDUNG", "ID_KEC": "32.73.19", "KECAMATAN": "SUMUR BANDUNG", "ID_DESA": "32.73.19.1001", "DESA": "BRAGA", "LONGITUDE": "107.6101067", "LATITUDE": "-6.9198235", "WAKTU": "Q2 2024" }, "geometry": { "type": "MultiPoint", "coordinates": [ [ 107.6101067, -6.9198235 ] ] } }
]
}
