{
"type": "FeatureCollection",
"name": "resto_braga",
"crs": { "type": "name", "properties": { "name": "urn:ogc:def:crs:OGC:1.3:CRS84" } },
"features": [
{ "type": "Feature", "properties": { "NAMA": "PONDOK KAPAU RUMAH MAKAN", "TIPE_1": "MAKANAN DAN MINUMAN", "TIPE_2": "RESTORAN", "TIPE_3": "RESTORAN PADANG", "TELEPON": "(022) 4218251", "ALAMAT": "JL. TAMBLONG NO.6, BRAGA, KEC. SUMUR BANDUNG, KOTA BANDUNG, JAWA BARAT 40111", "ID_PROV": "32", "PROVINSI": "JAWA BARAT", "ID_KABKOT": "32.73", "KABKOT": "KOTA BANDUNG", "ID_KEC": "32.73.19", "KECAMATAN": "SUMUR BANDUNG", "ID_DESA": "32.73.19.1001", "DESA": "BRAGA", "LONGITUDE": 107.6119746, "LATITUDE": -6.9193691, "STATUS": "BUKA", "TANGGAL UPDATE": "27/02/2025", "TANGGAL PENGUMPULAN": "Q4 2023", "q": 27634, "r": -15360 }, "geometry": { "type": "MultiPoint", "coordinates": [ [ 107.611974600000053, -6.919369099999926 ] ] } },
{ "type": "Feature", "properties": { "NAMA": "WARUNG TEGAL JL SUNIARAJA", "TIPE_1": "MAKANAN DAN MINUMAN", "TIPE_2": "RESTORAN", "TIPE_3": "WARUNG TEGAL", "TELEPON": "", "ALAMAT": "JL. SUNIARAJA NO.8, BRAGA, KEC. SUMUR BANDUNG, KOTA BANDUNG, JAWA BARAT 40111", "ID_PROV": "32", "PROVINSI": "JAWA BARAT", "ID_KABKOT": "32.73", "KABKOT": "KOTA BANDUNG", "ID_KEC": "32.73.19", "KECAMATAN": "SUMUR BANDUNG", "ID_DESA": "32.73.19.1001", "DESA": "BRAGA", "LONGITUDE": 107.6082097, "LATITUDE": -6.9161104, "STATUS": "BUKA", "TANGGAL UPDATE": "27/02/2025", "TANGGAL PENGUMPULAN": "Q4 2023", "q": 27633, "r": -15358 }, "geometry": { "type": "MultiPoint", "coordinates": [ [ 107.6082097, -6.9161104 ] ] } },
{ "type": "Feature", "properties": { "NAMA": "SEKAR SEAFOOD", "TIPE_1": "MAKANAN DAN MINUMAN", "TIPE_2": "RESTORAN", "TIPE_3": "SEAFOOD", "TELEPON": "0812-2211-1080", "ALAMAT": "JL. SUNIARAJA NO.41, BRAGA, KEC. SUMUR BANDUNG, KOTA BANDUNG, JAWA BARAT 40111", "ID_PROV": "32", "PROVINSI": "JAWA BARAT", "ID_KABKOT": "32.73", "KABKOT": "KOTA BANDUNG", "ID_KEC": "32.73.19", "KECAMATAN": "SUMUR BANDUNG", "ID_DESA": "32.73.19.1001", "DESA": "BRAGA", "LONGITUDE": 107.6075, "LATITUDE": -6.9158333, "STATUS": "BUKA", "TANGGAL UPDATE": "27/02/2025", "TANGGAL PENGUMPULAN": "Q4 2023", "q": 27633, "r": -15358 }, "geometry": { "type": "MultiPoint", "coordinates": [ [ 107.6075, -6.9158333 ] ] } },
{ "type": "Feature", "properties": { "NAMA": "SEAFOOD BAROKAH", "TIPE_1": "MAKANAN DAN MINUMAN", "TIPE_2": "RESTORAN", "TIPE_3": "SEAFOOD", "TELEPON": "", "ALAMAT": "JL. CIKAPUNDUNG BARAT, BRAGA, KEC. SUMUR BANDUNG, KOTA BANDUNG, JAWA BARAT 40111", "ID_PROV": "32", "PROVINSI": "JAWA BARAT", "ID_KABKOT": "32.73", "KABKOT": "KOTA BANDUNG", "ID_KEC": "32.73.19", "KECAMATAN": "SUMUR BANDUNG", "ID_DESA": "32.73.19.1001", "DESA": "BRAGA", "LONGITUDE": 107.6082721, "LATITUDE": -6.920079, "STATUS": "BUKA", "TANGGAL UPDATE": "27/02/2025", "TANGGAL PENGUMPULAN": "Q4 2023", "q": 27633, "r": -15359 }, "geometry": { "type": "MultiPoint", "coordinates": [ [ 107.6082721, -6.920079 ] ] } },
{ "type": "Feature", "properties": { "NAMA": "SUKA HATI SEAFOOD", "TIPE_1": "MAKANAN DAN MINUMAN", "TIPE_2": "RESTORAN", "TIPE_3": "SEAFOOD", "TELEPON": "", "ALAMAT": "JL. CIKAPUNDUNG BARAT NO.1, BRAGA, KEC. SUMUR BANDUNG, KOTA BANDUNG, JAWA BARAT 40111", "ID_PROV": "32", "PROVINSI": "JAWA BARAT", "ID_KABKOT": "32.73", "KABKOT": "KOTA BANDUNG", "ID_KEC": "32.73.19", "KECAMATAN": "SUMUR BANDUNG", "ID_DESA": "32.73.19.1001", "DESA": "BRAGA", "LONGITUDE": 107.6080206, "LATITUDE": -6.9206319, "STATUS": "BUKA", "TANGGAL UPDATE": "27/02/2025", "TANGGAL PENGUMPULAN": "Q4 2023", "q": 27633, "r": -15359 }, "geometry": { "type": "MultiPoint", "coordinates": [ [ 107.608020599999989, -6.9206319 ] ] } },
{ "type": "Feature", "properties": { "NAMA": "BRAGA SEAFOOD RM", "TIPE_1": "MAKANAN DAN MINUMAN", "TIPE_2": "RESTORAN", "TIPE_3": "SEAFOOD", "TELEPON": "(022) 4260638", "ALAMAT": "JL. BRAGA NO.99, BRAGA, KEC. SUMUR BANDUNG, KOTA BANDUNG, JAWA BARAT 40111", "ID_PROV": "32", "PROVINSI": "JAWA BARAT", "ID_KABKOT": "32.73", "KABKOT": "KOTA BANDUNG", "ID_KEC": "32.73.19", "KECAMATAN": "SUMUR BANDUNG", "ID_DESA": "32.73.19.1001", "DESA": "BRAGA", "LONGITUDE": 107.6084474, "LATITUDE": -6.9170449, "STATUS": "BUKA", "TANGGAL UPDATE": "27/02/2025", "TANGGAL PENGUMPULAN": "Q4 2023", "q": 27633, "r": -15359 }, "geometry": { "type": "MultiPoint", "coordinates": [ [ 107.608447399999989, -6.9170449 ] ] } },
{ "type": "Feature", "properties": { "NAMA": "JUSTUS STEAK HOUSE BRAGA", "TIPE_1": "MAKANAN DAN MINUMAN", "TIPE_2": "RESTORAN", "TIPE_3": "RESTORAN EROPA", "TELEPON": "(022) 84460131", "ALAMAT": "BRAGA, CITY WALK LANTAI GROUND, JL. BRAGA NO.88-101, BRAGA, KEC. SUMUR BANDUNG, KOTA BANDUNG, JAWA BARAT 40111", "ID_PROV": "32", "PROVINSI": "JAWA BARAT", "ID_KABKOT": "32.73", "KABKOT": "KOTA BANDUNG", "ID_KEC": "32.73.19", "KECAMATAN": "SUMUR BANDUNG", "ID_DESA": "32.73.19.1001", "DESA": "BRAGA", "LONGITUDE": 107.6087565, "LATITUDE": -6.9171245, "STATUS": "BUKA", "TANGGAL UPDATE": "27/02/2025", "TANGGAL PENGUMPULAN": "Q4 2023", "q": 27633, "r": -15359 }, "geometry": { "type": "MultiPoint", "coordinates": [ [ 107.6087565, -6.9171245 ] ] } },
{ "type": "Feature", "properties": { "NAMA": "INFINITE RESTO & LOUNGE", "TIPE_1": "MAKANAN DAN MINUMAN", "TIPE_2": "RESTORAN", "TIPE_3": "RESTORAN EROPA", "TELEPON": "(022) 30002525", "ALAMAT": "JL. LEMBONG NO.19, BRAGA, KEC. SUMUR BANDUNG, KOTA BANDUNG, JAWA BARAT 40111", "ID_PROV": "32", "PROVINSI": "JAWA BARAT", "ID_KABKOT": "32.73", "KABKOT": "KOTA BANDUNG", "ID_KEC": "32.73.19", "KECAMATAN": "SUMUR BANDUNG", "ID_DESA": "32.73.19.1001", "DESA": "BRAGA", "LONGITUDE": 107.6119906, "LATITUDE": -6.917234, "STATUS": "BUKA", "TANGGAL UPDATE": "27/02/2025", "TANGGAL PENGUMPULAN": "Q4 2023", "q": 27634, "r": -15359 }, "geometry": { "type": "MultiPoint", "coordinates": [ [ 107.6119906, -6.917234 ] ] } },
{ "type": "Feature", "properties": { "NAMA": "HAYANG THAI TEA PASAR BARU", "TIPE_1": "MAKANAN DAN MINUMAN", "TIPE_2": "RESTORAN", "TIPE_3": "RESTORAN THAILAND", "TELEPON": "0821-2772-3689", "ALAMAT": "JL. PECINAN LAMA NO.6, BRAGA, KEC. SUMUR BANDUNG, KOTA BANDUNG, JAWA BARAT 40111", "ID_PROV": "32", "PROVINSI": "JAWA BARAT", "ID_KABKOT": "32.73", "KABKOT": "KOTA BANDUNG", "ID_KEC": "32.73.19", "KECAMATAN": "SUMUR BANDUNG", "ID_DESA": "32.73.19.1001", "DESA": "BRAGA", "LONGITUDE": 107.6047048, "LATITUDE": -6.9173679, "STATUS": "BUKA", "TANGGAL UPDATE": "27/02/2025", "TANGGAL PENGUMPULAN": "Q4 2023", "q": 27632, "r": -15358 }, "geometry": { "type": "MultiPoint", "coordinates": [ [ 107.6047048, -6.9173679 ] ] } },
{ "type": "Feature", "properties": { "NAMA": "MIE CELOR 77", "TIPE_1": "MAKANAN DAN MINUMAN", "TIPE_2": "RESTORAN", "TIPE_3": "MIE DAN BAKSO", "TELEPON": "(022) 71173777", "ALAMAT": "JL. NARIPAN NO. 123 BRAGA SUMURBANDUNG BANDUNG JAWA BARAT, BRAGA, KEC. SUMUR BANDUNG, KOTA BANDUNG, JAWA BARAT 40111", "ID_PROV": "32", "PROVINSI": "JAWA BARAT", "ID_KABKOT": "32.73", "KABKOT": "KOTA BANDUNG", "ID_KEC": "32.73.19", "KECAMATAN": "SUMUR BANDUNG", "ID_DESA": "32.73.19.1001", "DESA": "BRAGA", "LONGITUDE": 107.6092597, "LATITUDE": -6.9195585, "STATUS": "BUKA", "TANGGAL UPDATE": "27/02/2025", "TANGGAL PENGUMPULAN": "Q4 2023", "q": 27633, "r": -15359 }, "geometry": { "type": "MultiPoint", "coordinates": [ [ 107.609259700000052, -6.919558499999937 ] ] } },
{ "type": "Feature", "properties": { "NAMA": "MIE JOGJA PAK KARSO", "TIPE_1": "MAKANAN DAN MINUMAN", "TIPE_2": "RESTORAN", "TIPE_3": "MIE DAN BAKSO", "TELEPON": "(022) 4236782", "ALAMAT": "JL. ABC NO.103C, BRAGA, KEC. SUMUR BANDUNG, KOTA BANDUNG, JAWA BARAT 40111", "ID_PROV": "32", "PROVINSI": "JAWA BARAT", "ID_KABKOT": "32.73", "KABKOT": "KOTA BANDUNG", "ID_KEC": "32.73.19", "KECAMATAN": "SUMUR BANDUNG", "ID_DESA": "32.73.19.1001", "DESA": "BRAGA", "LONGITUDE": 107.607807, "LATITUDE": -6.9190876, "STATUS": "BUKA", "TANGGAL UPDATE": "27/02/2025", "TANGGAL PENGUMPULAN": "Q4 2023", "q": 27633, "r": -15359 }, "geometry": { "type": "MultiPoint", "coordinates": [ [ 107.607807, -6.919087599999955 ] ] } },
{ "type": "Feature", "properties": { "NAMA": "BANCEUY NASI LEMAK BRAGA", "TIPE_1": "MAKANAN DAN MINUMAN", "TIPE_2": "RESTORAN", "TIPE_3": "RESTORAN MELAYU", "TELEPON": "0811-2381-368", "ALAMAT": "JL. BANCEUY NO.117, BRAGA, SUMURBANDUNG, BANDUNG CITY, WEST JAVA 40111", "ID_PROV": "32", "PROVINSI": "JAWA BARAT", "ID_KABKOT": "32.73", "KABKOT": "KOTA BANDUNG", "ID_KEC": "32.73.19", "KECAMATAN": "SUMUR BANDUNG", "ID_DESA": "32.73.19.1001", "DESA": "BRAGA", "LONGITUDE": 107.6064337, "LATITUDE": -6.9158517, "STATUS": "BUKA", "TANGGAL UPDATE": "27/02/2025", "TANGGAL PENGUMPULAN": "Q4 2023", "q": 27633, "r": -15358 }, "geometry": { "type": "MultiPoint", "coordinates": [ [ 107.6064337, -6.9158517 ] ] } },
{ "type": "Feature", "properties": { "NAMA": "BRAGA PERMAI BANDUNG", "TIPE_1": "MAKANAN DAN MINUMAN", "TIPE_2": "RESTORAN", "TIPE_3": "RESTORAN MELAYU", "TELEPON": "(022) 4233778", "ALAMAT": "JL. BRAGA NO.58, BRAGA, KEC. SUMUR BANDUNG, KOTA BANDUNG, JAWA BARAT 40111", "ID_PROV": "32", "PROVINSI": "JAWA BARAT", "ID_KABKOT": "32.73", "KABKOT": "KOTA BANDUNG", "ID_KEC": "32.73.19", "KECAMATAN": "SUMUR BANDUNG", "ID_DESA": "32.73.19.1001", "DESA": "BRAGA", "LONGITUDE": 107.60951, "LATITUDE": -6.9173528, "STATUS": "BUKA", "TANGGAL UPDATE": "27/02/2025", "TANGGAL PENGUMPULAN": "Q4 2023", "q": 27633, "r": -15359 }, "geometry": { "type": "MultiPoint", "coordinates": [ [ 107.60951, -6.9173528 ] ] } },
{ "type": "Feature", "properties": { "NAMA": "MIE RICA KEJAKSAAN", "TIPE_1": "MAKANAN DAN MINUMAN", "TIPE_2": "RESTORAN", "TIPE_3": "MIE DAN BAKSO", "TELEPON": "(022) 4231268", "ALAMAT": "JL. KEJAKSAAN NO.7, BRAGA, KEC. SUMUR BANDUNG, KOTA BANDUNG, JAWA BARAT 40111", "ID_PROV": "32", "PROVINSI": "JAWA BARAT", "ID_KABKOT": "32.73", "KABKOT": "KOTA BANDUNG", "ID_KEC": "32.73.19", "KECAMATAN": "SUMUR BANDUNG", "ID_DESA": "32.73.19.1001", "DESA": "BRAGA", "LONGITUDE": 107.61019189999899, "LATITUDE": -6.9184212, "STATUS": "BUKA", "TANGGAL UPDATE": "27/02/2025", "TANGGAL PENGUMPULAN": "Q4 2023", "q": 27634, "r": -15359 }, "geometry": { "type": "MultiPoint", "coordinates": [ [ 107.610191900000075, -6.918421199999955 ] ] } },
{ "type": "Feature", "properties": { "NAMA": "MIE BASO & SOP BUAH 88", "TIPE_1": "MAKANAN DAN MINUMAN", "TIPE_2": "RESTORAN", "TIPE_3": "MIE DAN BAKSO", "TELEPON": "0878-2353-8522", "ALAMAT": "JL. CIKAPUNDUNG BARAT, BRAGA, KEC. SUMUR BANDUNG, KOTA BANDUNG, JAWA BARAT 40111", "ID_PROV": "32", "PROVINSI": "JAWA BARAT", "ID_KABKOT": "32.73", "KABKOT": "KOTA BANDUNG", "ID_KEC": "32.73.19", "KECAMATAN": "SUMUR BANDUNG", "ID_DESA": "32.73.19.1001", "DESA": "BRAGA", "LONGITUDE": 107.6082891, "LATITUDE": -6.9200741, "STATUS": "BUKA", "TANGGAL UPDATE": "27/02/2025", "TANGGAL PENGUMPULAN": "Q4 2023", "q": 27633, "r": -15359 }, "geometry": { "type": "MultiPoint", "coordinates": [ [ 107.608289100000036, -6.920074099999965 ] ] } },
{ "type": "Feature", "properties": { "NAMA": "SAMWON HOUSE BANDUNG", "TIPE_1": "MAKANAN DAN MINUMAN", "TIPE_2": "RESTORAN", "TIPE_3": "RESTORAN KOREA", "TELEPON": "0821-2059-6300", "ALAMAT": "JL. MORCE NO.16, BRAGA, KEC. SUMUR BANDUNG, KOTA BANDUNG, JAWA BARAT 40111", "ID_PROV": "32", "PROVINSI": "JAWA BARAT", "ID_KABKOT": "32.73", "KABKOT": "KOTA BANDUNG", "ID_KEC": "32.73.19", "KECAMATAN": "SUMUR BANDUNG", "ID_DESA": "32.73.19.1001", "DESA": "BRAGA", "LONGITUDE": 107.6100414, "LATITUDE": -6.9179288, "STATUS": "BUKA", "TANGGAL UPDATE": "27/02/2025", "TANGGAL PENGUMPULAN": "Q4 2023", "q": 27634, "r": -15359 }, "geometry": { "type": "MultiPoint", "coordinates": [ [ 107.610041400000057, -6.91792879999997 ] ] } },
{ "type": "Feature", "properties": { "NAMA": "RM PADANG PALANO RAYA", "TIPE_1": "MAKANAN DAN MINUMAN", "TIPE_2": "RESTORAN", "TIPE_3": "RESTORAN PADANG", "TELEPON": "0852-1096-7622", "ALAMAT": "JL. CIKAPUNDUNG BARAT, BRAGA, KEC. SUMUR BANDUNG, KOTA BANDUNG, JAWA BARAT 40111", "ID_PROV": "32", "PROVINSI": "JAWA BARAT", "ID_KABKOT": "32.73", "KABKOT": "KOTA BANDUNG", "ID_KEC": "32.73.19", "KECAMATAN": "SUMUR BANDUNG", "ID_DESA": "32.73.19.1001", "DESA": "BRAGA", "LONGITUDE": 107.6080424, "LATITUDE": -6.919883, "STATUS": "BUKA", "TANGGAL UPDATE": "27/02/2025", "TANGGAL PENGUMPULAN": "Q4 2023", "q": 27633, "r": -15359 }, "geometry": { "type": "MultiPoint", "coordinates": [ [ 107.608042400000045, -6.919883 ] ] } },
{ "type": "Feature", "properties": { "NAMA": "CHUNG GI WA", "TIPE_1": "MAKANAN DAN MINUMAN", "TIPE_2": "RESTORAN", "TIPE_3": "RESTORAN KOREA", "TELEPON": "(022) 20531766", "ALAMAT": "JL. SUMATERA NO.5, BRAGA, KEC. SUMUR BANDUNG, KOTA BANDUNG, JAWA BARAT 40117", "ID_PROV": "32", "PROVINSI": "JAWA BARAT", "ID_KABKOT": "32.73", "KABKOT": "KOTA BANDUNG", "ID_KEC": "32.73.19", "KECAMATAN": "SUMUR BANDUNG", "ID_DESA": "32.73.19.1001", "DESA": "BRAGA", "LONGITUDE": 107.6132408, "LATITUDE": -6.917461, "STATUS": "BUKA", "TANGGAL UPDATE": "27/02/2025", "TANGGAL PENGUMPULAN": "Q4 2023", "q": 27634, "r": -15359 }, "geometry": { "type": "MultiPoint", "coordinates": [ [ 107.613240800000085, -6.917461 ] ] } },
{ "type": "Feature", "properties": { "NAMA": "KATSUNYAKA BRAGA SARINAH", "TIPE_1": "MAKANAN DAN MINUMAN", "TIPE_2": "RESTORAN", "TIPE_3": "RESTORAN KOREA", "TELEPON": "", "ALAMAT": "JL. KEJAKSAAN NO.2-5, BRAGA, KEC. SUMUR BANDUNG, KOTA BANDUNG, JAWA BARAT 40111", "ID_PROV": "32", "PROVINSI": "JAWA BARAT", "ID_KABKOT": "32.73", "KABKOT": "KOTA BANDUNG", "ID_KEC": "32.73.19", "KECAMATAN": "SUMUR BANDUNG", "ID_DESA": "32.73.19.1001", "DESA": "BRAGA", "LONGITUDE": 107.6098591, "LATITUDE": -6.9186791, "STATUS": "BUKA", "TANGGAL UPDATE": "27/02/2025", "TANGGAL PENGUMPULAN": "Q4 2023", "q": 27634, "r": -15359 }, "geometry": { "type": "MultiPoint", "coordinates": [ [ 107.609859100000051, -6.918679099999963 ] ] } },
{ "type": "Feature", "properties": { "NAMA": "NASI GORENG SS", "TIPE_1": "MAKANAN DAN MINUMAN", "TIPE_2": "RESTORAN", "TIPE_3": "NASI GORENG", "TELEPON": "", "ALAMAT": "JL. SUMATERA NO.5, MERDEKA, SUMURBANDUNG, BANDUNG CITY, WEST JAVA 40117", "ID_PROV": "32", "PROVINSI": "JAWA BARAT", "ID_KABKOT": "32.73", "KABKOT": "KOTA BANDUNG", "ID_KEC": "32.73.19", "KECAMATAN": "SUMUR BANDUNG", "ID_DESA": "32.73.19.1001", "DESA": "BRAGA", "LONGITUDE": 107.613240699999, "LATITUDE": -6.917461, "STATUS": "BUKA", "TANGGAL UPDATE": "27/02/2025", "TANGGAL PENGUMPULAN": "Q4 2023", "q": 27634, "r": -15359 }, "geometry": { "type": "MultiPoint", "coordinates": [ [ 107.613240700000063, -6.917461 ] ] } },
{ "type": "Feature", "properties": { "NAMA": "SUSHI TEI", "TIPE_1": "MAKANAN DAN MINUMAN", "TIPE_2": "RESTORAN", "TIPE_3": "SUSHI", "TELEPON": "(022) 4223181", "ALAMAT": "JL. SUMATERA NO.9, BRAGA, KEC. SUMUR BANDUNG, KOTA BANDUNG, JAWA BARAT 40111", "ID_PROV": "32", "PROVINSI": "JAWA BARAT", "ID_KABKOT": "32.73", "KABKOT": "KOTA BANDUNG", "ID_KEC": "32.73.19", "KECAMATAN": "SUMUR BANDUNG", "ID_DESA": "32.73.19.1001", "DESA": "BRAGA", "LONGITUDE": 107.61310069999899, "LATITUDE": -6.9169865, "STATUS": "BUKA", "TANGGAL UPDATE": "27/02/2025", "TANGGAL PENGUMPULAN": "Q4 2023", "q": 27634, "r": -15359 }, "geometry": { "type": "MultiPoint", "coordinates": [ [ 107.613100700000075, -6.91698649999995 ] ] } },
{ "type": "Feature", "properties": { "NAMA": "RUMAH MAKAN BUNDO", "TIPE_1": "MAKANAN DAN MINUMAN", "TIPE_2": "RESTORAN", "TIPE_3": "RESTORAN PADANG", "TELEPON": "(022) 4239518", "ALAMAT": "JL. ASIA AFRIKA NO.134, BRAGA, KEC. SUMUR BANDUNG, KOTA BANDUNG, JAWA BARAT 40261", "ID_PROV": "32", "PROVINSI": "JAWA BARAT", "ID_KABKOT": "32.73", "KABKOT": "KOTA BANDUNG", "ID_KEC": "32.73.19", "KECAMATAN": "SUMUR BANDUNG", "ID_DESA": "32.73.19.1001", "DESA": "BRAGA", "LONGITUDE": 107.60780779999899, "LATITUDE": -6.9190338, "STATUS": "BUKA", "TANGGAL UPDATE": "27/02/2025", "TANGGAL PENGUMPULAN": "Q4 2023", "q": 27633, "r": -15359 }, "geometry": { "type": "MultiPoint", "coordinates": [ [ 107.607807800000046, -6.919033799999966 ] ] } },
{ "type": "Feature", "properties": { "NAMA": "RUMAH MAKAN GELORA MINANG", "TIPE_1": "MAKANAN DAN MINUMAN", "TIPE_2": "RESTORAN", "TIPE_3": "RESTORAN PADANG", "TELEPON": "0851-0179-9752", "ALAMAT": "JL. LEMBONG NO.22, BRAGA, KEC. SUMUR BANDUNG, KOTA BANDUNG, JAWA BARAT 40111", "ID_PROV": "32", "PROVINSI": "JAWA BARAT", "ID_KABKOT": "32.73", "KABKOT": "KOTA BANDUNG", "ID_KEC": "32.73.19", "KECAMATAN": "SUMUR BANDUNG", "ID_DESA": "32.73.19.1001", "DESA": "BRAGA", "LONGITUDE": 107.610153, "LATITUDE": -6.9167828, "STATUS": "BUKA", "TANGGAL UPDATE": "27/02/2025", "TANGGAL PENGUMPULAN": "Q4 2023", "q": 27634, "r": -15359 }, "geometry": { "type": "MultiPoint", "coordinates": [ [ 107.610153, -6.916782799999964 ] ] } },
{ "type": "Feature", "properties": { "NAMA": "WENDY'S", "TIPE_1": "MAKANAN DAN MINUMAN", "TIPE_2": "RESTORAN", "TIPE_3": "CEPAT SAJI", "TELEPON": "(022) 84460044", "ALAMAT": "JL. BRAGA NO.99-101, BRAGA, KEC. SUMUR BANDUNG, KOTA BANDUNG, JAWA BARAT 40111", "ID_PROV": "32", "PROVINSI": "JAWA BARAT", "ID_KABKOT": "32.73", "KABKOT": "KOTA BANDUNG", "ID_KEC": "32.73.19", "KECAMATAN": "SUMUR BANDUNG", "ID_DESA": "32.73.19.1001", "DESA": "BRAGA", "LONGITUDE": 107.6091119, "LATITUDE": -6.9169595, "STATUS": "BUKA", "TANGGAL UPDATE": "27/02/2025", "TANGGAL PENGUMPULAN": "Q4 2023", "q": 27633, "r": -15359 }, "geometry": { "type": "MultiPoint", "coordinates": [ [ 107.6091119, -6.9169595 ] ] } },
{ "type": "Feature", "properties": { "NAMA": "AYAM DJOGJA KEJAKSAAN", "TIPE_1": "MAKANAN DAN MINUMAN", "TIPE_2": "RESTORAN", "TIPE_3": "CEPAT SAJI", "TELEPON": "(022) 4203017", "ALAMAT": "JL. KEJAKSAAN NO.5, BRAGA, KEC. SUMUR BANDUNG, KOTA BANDUNG, JAWA BARAT 40111", "ID_PROV": "32", "PROVINSI": "JAWA BARAT", "ID_KABKOT": "32.73", "KABKOT": "KOTA BANDUNG", "ID_KEC": "32.73.19", "KECAMATAN": "SUMUR BANDUNG", "ID_DESA": "32.73.19.1001", "DESA": "BRAGA", "LONGITUDE": 107.610049, "LATITUDE": -6.9184612, "STATUS": "BUKA", "TANGGAL UPDATE": "27/02/2025", "TANGGAL PENGUMPULAN": "Q4 2023", "q": 27634, "r": -15359 }, "geometry": { "type": "MultiPoint", "coordinates": [ [ 107.610049, -6.9184612 ] ] } },
{ "type": "Feature", "properties": { "NAMA": "KFC PASAR BARU", "TIPE_1": "MAKANAN DAN MINUMAN", "TIPE_2": "RESTORAN", "TIPE_3": "CEPAT SAJI", "TELEPON": "0811-7157-188", "ALAMAT": "JL. OTTO ISKANDAR DINATA NO.81, BRAGA, KEC. SUMUR BANDUNG, KOTA BANDUNG, JAWA BARAT 40251", "ID_PROV": "32", "PROVINSI": "JAWA BARAT", "ID_KABKOT": "32.73", "KABKOT": "KOTA BANDUNG", "ID_KEC": "32.73.19", "KECAMATAN": "SUMUR BANDUNG", "ID_DESA": "32.73.19.1001", "DESA": "BRAGA", "LONGITUDE": 107.6045019, "LATITUDE": -6.9175585, "STATUS": "BUKA", "TANGGAL UPDATE": "27/02/2025", "TANGGAL PENGUMPULAN": "Q4 2023", "q": 27632, "r": -15358 }, "geometry": { "type": "MultiPoint", "coordinates": [ [ 107.604501899999988, -6.9175585 ] ] } },
{ "type": "Feature", "properties": { "NAMA": "RESTOE BOEMI BRAGA BANDUNG", "TIPE_1": "MAKANAN DAN MINUMAN", "TIPE_2": "RESTORAN", "TIPE_3": "CEPAT SAJI", "TELEPON": "", "ALAMAT": "JL. BRAGA, BRAGA, KEC. SUMUR BANDUNG, KOTA BANDUNG, JAWA BARAT 40111", "ID_PROV": "32", "PROVINSI": "JAWA BARAT", "ID_KABKOT": "32.73", "KABKOT": "KOTA BANDUNG", "ID_KEC": "32.73.19", "KECAMATAN": "SUMUR BANDUNG", "ID_DESA": "32.73.19.1001", "DESA": "BRAGA", "LONGITUDE": 107.6097293, "LATITUDE": -6.9186143, "STATUS": "BUKA", "TANGGAL UPDATE": "27/02/2025", "TANGGAL PENGUMPULAN": "Q4 2023", "q": 27633, "r": -15359 }, "geometry": { "type": "MultiPoint", "coordinates": [ [ 107.6097293, -6.9186143 ] ] } },
{ "type": "Feature", "properties": { "NAMA": "winglok", "TIPE_1": "MAKANAN DAN MINUMAN", "TIPE_2": "RESTORAN", "TIPE_3": "CHINESE FOOD", "TELEPON": null, "ALAMAT": null, "ID_PROV": null, "PROVINSI": null, "ID_KABKOT": null, "KABKOT": null, "ID_KEC": null, "KECAMATAN": null, "ID_DESA": null, "DESA": null, "LONGITUDE": null, "LATITUDE": null, "STATUS": null, "TANGGAL UPDATE": null, "TANGGAL PENGUMPULAN": null, "q": null, "r": null }, "geometry": { "type": "MultiPoint", "coordinates": [ [ 107.608797911611333, -6.916134159165603 ] ] } },
{ "type": "Feature", "properties": { "NAMA": "ZANGGOS", "TIPE_1": "MAKANAN DAN MINUMAN", "TIPE_2": "RESTORAN", "TIPE_3": "CEPAT SAJI", "TELEPON": null, "ALAMAT": null, "ID_PROV": null, "PROVINSI": null, "ID_KABKOT": null, "KABKOT": null, "ID_KEC": null, "KECAMATAN": null, "ID_DESA": null, "DESA": null, "LONGITUDE": null, "LATITUDE": null, "STATUS": null, "TANGGAL UPDATE": null, "TANGGAL PENGUMPULAN": null, "q": null, "r": null }, "geometry": { "type": "MultiPoint", "coordinates": [ [ 107.608910330805102, -6.916410561728824 ] ] } },
{ "type": "Feature", "properties": { "NAMA": "KOPI TOKO DJAWA", "TIPE_1": "MAKANAN DAN MINUMAN", "TIPE_2": "CAFE", "TIPE_3": "KOPI", "TELEPON": null, "ALAMAT": null, "ID_PROV": null, "PROVINSI": null, "ID_KABKOT": null, "KABKOT": null, "ID_KEC": null, "KECAMATAN": null, "ID_DESA": null, "DESA": null, "LONGITUDE": null, "LATITUDE": null, "STATUS": null, "TANGGAL UPDATE": null, "TANGGAL PENGUMPULAN": null, "q": null, "r": null }, "geometry": { "type": "MultiPoint", "coordinates": [ [ 107.60925734377102, -6.917500842091655 ] ] } },
{ "type": "Feature", "properties": { "NAMA": "Limarasa Braga", "TIPE_1": "MAKANAN DAN MINUMAN", "TIPE_2": "RESTORAN", "TIPE_3": "RESTORAN Asia", "TELEPON": null, "ALAMAT": null, "ID_PROV": null, "PROVINSI": null, "ID_KABKOT": null, "KABKOT": null, "ID_KEC": null, "KECAMATAN": null, "ID_DESA": null, "DESA": null, "LONGITUDE": null, "LATITUDE": null, "STATUS": null, "TANGGAL UPDATE": null, "TANGGAL PENGUMPULAN": null, "q": null, "r": null }, "geometry": { "type": "MultiPoint", "coordinates": [ [ 107.60967264442894, -6.918432713590519 ] ] } },
{ "type": "Feature", "properties": { "NAMA": "Bakso Haji Ma`il", "TIPE_1": "MAKANAN DAN MINUMAN", "TIPE_2": "RESTORAN", "TIPE_3": "Bakso", "TELEPON": null, "ALAMAT": null, "ID_PROV": null, "PROVINSI": null, "ID_KABKOT": null, "KABKOT": null, "ID_KEC": null, "KECAMATAN": null, "ID_DESA": null, "DESA": null, "LONGITUDE": null, "LATITUDE": null, "STATUS": null, "TANGGAL UPDATE": null, "TANGGAL PENGUMPULAN": null, "q": null, "r": null }, "geometry": { "type": "MultiPoint", "coordinates": [ [ 107.609949511534268, -6.918459192491532 ] ] } }
]
}
