{
"type": "FeatureCollection",
"name": "batas_wilayah_braga",
"crs": { "type": "name", "properties": { "name": "urn:ogc:def:crs:OGC:1.3:CRS84" } },
"features": [
{ "type": "Feature", "properties": { "KDPPUM": null, "NAMOBJ": "Beraga", "REMARK": "Wilayah Administrasi Keluruhan/Desa", "KDPBPS": null, "FCODE": null, "LUASWH": 0.0, "UUPP": null, "SRS_ID": null, "LCODE": "BA0020", "METADATA": null, "KDEBPS": null, "KDEPUM": null, "KDCBPS": null, "KDCPUM": null, "KDBBPS": null, "KDBPUM": null, "WADMKD": null, "WIADKD": null, "WADMKC": "Sumur Bandung", "WIADKC": null, "WADMKK": "Kota Bandung", "WIADKK": null, "WADMPR": "Jawa Barat", "WIADPR": null, "TIPADM": 0, "SHAPE_Leng": 0.03024680467, "SHAPE_Area": 5.235531e-05 }, "geometry": { "type": "MultiPolygon", "coordinates": [ [ [ [ 107.613796999000016, -6.915793000999983, 0.0 ], [ 107.613792001000036, -6.915822999999889, 0.0 ], [ 107.61377029400002, -6.916004880999928, 0.0 ], [ 107.613763, -6.916066, 0.0 ], [ 107.613716001000057, -6.916291, 0.0 ], [ 107.613715773000038, -6.916291590999936, 0.0 ], [ 107.613711, -6.916304000999986, 0.0 ], [ 107.613604808, -6.916861507999929, 0.0 ], [ 107.613579, -6.916997, 0.0 ], [ 107.613514882000032, -6.917261649999908, 0.0 ], [ 107.61343, -6.917612, 0.0 ], [ 107.613311, -6.917691999999899, 0.0 ], [ 107.612702, -6.917975, 0.0 ], [ 107.612639, -6.917995, 0.0 ], [ 107.612508, -6.917942000999979, 0.0 ], [ 107.612486321000105, -6.917999327999926, 0.0 ], [ 107.612463, -6.918060998999966, 0.0 ], [ 107.612418254000062, -6.918259960999908, 0.0 ], [ 107.612407000000104, -6.918310000999963, 0.0 ], [ 107.612351, -6.918683001, 0.0 ], [ 107.612259999000031, -6.919478, 0.0 ], [ 107.612246360000057, -6.919636124, 0.0 ], [ 107.612205999000082, -6.920104000999984, 0.0 ], [ 107.612203843000088, -6.920127009999934, 0.0 ], [ 107.612203000000108, -6.920136, 0.0 ], [ 107.612163, -6.920383, 0.0 ], [ 107.611998053000022, -6.921747572, 0.0 ], [ 107.611998001000103, -6.921748, 0.0 ], [ 107.61178800100005, -6.921733, 0.0 ], [ 107.611132, -6.921651, 0.0 ], [ 107.610966002000069, -6.921632451999884, 0.0 ], [ 107.610773999000088, -6.921610999999885, 0.0 ], [ 107.61018072100002, -6.921535371999934, 0.0 ], [ 107.609966, -6.921508000999978, 0.0 ], [ 107.609832, -6.921483, 0.0 ], [ 107.609809, -6.921477, 0.0 ], [ 107.60980899400009, -6.921476849999976, 0.0 ], [ 107.609808398000041, -6.921463144, 0.0 ], [ 107.609808019000099, -6.921454437999987, 0.0 ], [ 107.609808, -6.921454, 0.0 ], [ 107.609572114000031, -6.921438878999943, 0.0 ], [ 107.609418, -6.921429, 0.0 ], [ 107.608910103000056, -6.92137348499995, 0.0 ], [ 107.608741, -6.921355000999931, 0.0 ], [ 107.608642, -6.921343, 0.0 ], [ 107.60836277000007, -6.921316246999922, 0.0 ], [ 107.608308, -6.921311, 0.0 ], [ 107.608296404000086, -6.921309724999915, 0.0 ], [ 107.608217, -6.921300998999904, 0.0 ], [ 107.608106206000059, -6.921280225999961, 0.0 ], [ 107.608009, -6.921262, 0.0 ], [ 107.607956899000058, -6.921257991999898, 0.0 ], [ 107.607944, -6.921257, 0.0 ], [ 107.607749, -6.921243, 0.0 ], [ 107.607716, -6.921243, 0.0 ], [ 107.607591670000033, -6.921229544999942, 0.0 ], [ 107.607485, -6.921218, 0.0 ], [ 107.607267490000126, -6.921203253999987, 0.0 ], [ 107.606777, -6.92117, 0.0 ], [ 107.606458000000117, -6.92110499899994, 0.0 ], [ 107.606457778, -6.921104983999939, 0.0 ], [ 107.6064, -6.921101000999965, 0.0 ], [ 107.60509, -6.920921, 0.0 ], [ 107.604616000000121, -6.920884, 0.0 ], [ 107.604224931, -6.9208201, 0.0 ], [ 107.604157, -6.920809000999963, 0.0 ], [ 107.604140317000102, -6.920802017, 0.0 ], [ 107.6041144040001, -6.920791168999909, 0.0 ], [ 107.604114, -6.920790998999983, 0.0 ], [ 107.604114506000101, -6.920787455999957, 0.0 ], [ 107.604115, -6.920784000999937, 0.0 ], [ 107.604153, -6.919903, 0.0 ], [ 107.604154053000087, -6.919878252999958, 0.0 ], [ 107.604161, -6.919715, 0.0 ], [ 107.604171, -6.919449, 0.0 ], [ 107.604196000000101, -6.919213, 0.0 ], [ 107.604257, -6.918688, 0.0 ], [ 107.604283, -6.918271000999933, 0.0 ], [ 107.604282999000105, -6.91813, 0.0 ], [ 107.604303089000069, -6.917813803999941, 0.0 ], [ 107.604306, -6.917768, 0.0 ], [ 107.60434, -6.917431000999976, 0.0 ], [ 107.604368000000122, -6.917155, 0.0 ], [ 107.604373, -6.9171, 0.0 ], [ 107.604407101000064, -6.916732081999967, 0.0 ], [ 107.604463, -6.916129, 0.0 ], [ 107.604479178000076, -6.915951046, 0.0 ], [ 107.604492, -6.91581, 0.0 ], [ 107.604516, -6.915371998999966, 0.0 ], [ 107.604532178000028, -6.915103830999982, 0.0 ], [ 107.604549, -6.914825, 0.0 ], [ 107.604554660000105, -6.91479726599993, 0.0 ], [ 107.604559, -6.914776, 0.0 ], [ 107.604564581000034, -6.914774711999929, 0.0 ], [ 107.604572000000118, -6.914773, 0.0 ], [ 107.604544073000028, -6.914602445999975, 0.0 ], [ 107.604544, -6.914602, 0.0 ], [ 107.604544550000071, -6.914602057999943, 0.0 ], [ 107.604563, -6.914604, 0.0 ], [ 107.604651, -6.914604, 0.0 ], [ 107.605161999000089, -6.914658, 0.0 ], [ 107.606955000000113, -6.914889, 0.0 ], [ 107.606984001000029, -6.914891, 0.0 ], [ 107.607114000000124, -6.914911, 0.0 ], [ 107.607252, -6.914931, 0.0 ], [ 107.607378823, -6.914950452, 0.0 ], [ 107.607415, -6.914956, 0.0 ], [ 107.607429737000047, -6.914958104999915, 0.0 ], [ 107.607569000000112, -6.914978, 0.0 ], [ 107.607662533000038, -6.914992691999934, 0.0 ], [ 107.60776, -6.915008, 0.0 ], [ 107.608433999000098, -6.915093000999974, 0.0 ], [ 107.608522140000019, -6.915102775999983, 0.0 ], [ 107.608975, -6.915153000999965, 0.0 ], [ 107.609590370000035, -6.915229366999977, 0.0 ], [ 107.609668, -6.915238999999886, 0.0 ], [ 107.609693387000021, -6.915242053999961, 0.0 ], [ 107.609800999000043, -6.915255, 0.0 ], [ 107.60987860300007, -6.915264864999894, 0.0 ], [ 107.609919, -6.915270000999964, 0.0 ], [ 107.609961305000084, -6.915275050999938, 0.0 ], [ 107.61012, -6.915294, 0.0 ], [ 107.610175, -6.915296, 0.0 ], [ 107.610246001000093, -6.915317, 0.0 ], [ 107.610763, -6.915394, 0.0 ], [ 107.61100309400004, -6.915424862999899, 0.0 ], [ 107.611292, -6.915462, 0.0 ], [ 107.613089, -6.915675, 0.0 ], [ 107.613222690000015, -6.915696045999955, 0.0 ], [ 107.613647999000122, -6.915763, 0.0 ], [ 107.613763874000114, -6.915786330999964, 0.0 ], [ 107.613796999000016, -6.915793000999983, 0.0 ] ] ] ] } }
]
}
