{
"type": "FeatureCollection",
"name": "jalan_braga",
"crs": { "type": "name", "properties": { "name": "urn:ogc:def:crs:OGC:1.3:CRS84" } },
"features": [
{ "type": "Feature", "properties": { "NAMRJL": null, "KONRJL": 0, "MATRJL": 0, "FGSRJL": 0, "UTKRJL": 0, "TOLRJL": 0, "WLYRJL": 0, "AUTRJL": 0, "KLSRJL": 0, "SPCRJL": 0, "JPARJL": 0, "ARHRJL": 0, "STARJL": 0, "KLLRJL": null, "MEDRJL": 0, "LOCRJL": 0, "JARRJL": 0, "FCODE": null, "REMARK": "Jalan Kolektor", "SRS_ID": null, "LCODE": "CA0080", "METADATA": null, "SHAPE_Leng": 0.00209690028 }, "geometry": { "type": "MultiLineString", "coordinates": [ [ [ 107.60411440700004, -6.920791030999982, 0.0 ], [ 107.604114000354642, -6.920790996517225, 0.0 ] ], [ [ 107.60411440700004, -6.920791030999982, 0.0 ], [ 107.604114404250126, -6.920791169104579, 0.0 ] ], [ [ 107.604153756453854, -6.91987636362058, 0.0 ], [ 107.604114506161409, -6.920787454871768, 0.0 ], [ 107.60411440700004, -6.920791030999982, 0.0 ] ], [ [ 107.604140388831837, -6.920802047070907, 0.0 ], [ 107.60411440700004, -6.920791030999982, 0.0 ] ], [ [ 107.605089905000099, -6.920920724999966, 0.0 ], [ 107.604615788000046, -6.920883803999931, 0.0 ], [ 107.604225401537462, -6.920820176885003, 0.0 ], [ 107.604157987345303, -6.920809183209672, 0.0 ], [ 107.604141063779494, -6.920802928848396, 0.0 ] ], [ [ 107.604171130000026, -6.919449415, 0.0 ], [ 107.60416117300008, -6.919714836999933, 0.0 ], [ 107.604154059589732, -6.919878098144576, 0.0 ] ], [ [ 107.604170984845467, -6.919449403112366, 0.0 ], [ 107.604171130000026, -6.919449415, 0.0 ] ], [ [ 107.604196455000078, -6.919212799999961, 0.0 ], [ 107.604171130000026, -6.919449415, 0.0 ] ], [ [ 107.604283158000058, -6.918270628999988, 0.0 ], [ 107.604257162000039, -6.918688464999921, 0.0 ], [ 107.604196455000078, -6.919212799999961, 0.0 ] ], [ [ 107.604196455000078, -6.919212799999961, 0.0 ], [ 107.604507740000074, -6.919252917999906, 0.0 ], [ 107.604836764000112, -6.919279282999955, 0.0 ], [ 107.605085554000098, -6.919319851999937, 0.0 ], [ 107.605208558000058, -6.919344589999941, 0.0 ] ], [ [ 107.604282999997338, -6.918270611390582, 0.0 ], [ 107.604283158000058, -6.918270628999988, 0.0 ] ], [ [ 107.604303100902058, -6.917813616724469, 0.0 ], [ 107.604283416000072, -6.918129643999958, 0.0 ], [ 107.604283158000058, -6.918270628999988, 0.0 ] ], [ [ 107.604283158000058, -6.918270628999988, 0.0 ], [ 107.604689226000076, -6.918428494, 0.0 ], [ 107.605007193000091, -6.918519697, 0.0 ], [ 107.605393450000079, -6.91864504599997, 0.0 ], [ 107.605409956000116, -6.918650503999977, 0.0 ] ], [ [ 107.604479159585466, -6.915951248556171, 0.0 ], [ 107.604463418000051, -6.916128574999945, 0.0 ], [ 107.604407014602842, -6.916733014145405, 0.0 ], [ 107.604338628015071, -6.917433299735218, 0.0 ], [ 107.604313610569974, -6.917684945800663, 0.0 ], [ 107.604301837654631, -6.917815919483847, 0.0 ] ], [ [ 107.605612907000122, -6.917410168999936, 0.0 ], [ 107.605551900000052, -6.917409753, 0.0 ], [ 107.604846255000012, -6.917436697, 0.0 ], [ 107.604339976023411, -6.917431238649783, 0.0 ] ], [ [ 107.604478615336518, -6.915951751920092, 0.0 ], [ 107.604492595673491, -6.915815259682842, 0.0 ], [ 107.604492822029428, -6.915811191210761, 0.0 ] ], [ [ 107.604492822029428, -6.915811191210761, 0.0 ], [ 107.604491950734058, -6.915810541941631, 0.0 ] ], [ [ 107.604492822029428, -6.915811191210761, 0.0 ], [ 107.604532166986928, -6.9151040135542, 0.0 ], [ 107.60454948000006, -6.914825106, 0.0 ] ], [ [ 107.605226428000023, -6.915750027999977, 0.0 ], [ 107.604822148000068, -6.915835307999927, 0.0 ], [ 107.60458998700004, -6.915845398999963, 0.0 ], [ 107.604499133000076, -6.91581589399992, 0.0 ], [ 107.604492822029428, -6.915811191210761, 0.0 ] ], [ [ 107.6045489951712, -6.91482508004044, 0.0 ], [ 107.60454948000006, -6.914825106, 0.0 ] ], [ [ 107.60454948000006, -6.914825106, 0.0 ], [ 107.604554657702209, -6.914797277259593, 0.0 ] ], [ [ 107.604564584194094, -6.914774711262871, 0.0 ], [ 107.604572094000062, -6.914773426999908, 0.0 ], [ 107.605699979000036, -6.914879869999922, 0.0 ], [ 107.606363487000053, -6.914963197999977, 0.0 ], [ 107.606527467000035, -6.915008260999976, 0.0 ], [ 107.606778050000074, -6.915277333999946, 0.0 ], [ 107.60682082600006, -6.915295832999966, 0.0 ] ], [ [ 107.605089905000099, -6.920920724999966, 0.0 ], [ 107.605115974000043, -6.920331857999916, 0.0 ], [ 107.605208558000058, -6.919344589999941, 0.0 ] ], [ [ 107.606457548000023, -6.921104819999922, 0.0 ], [ 107.60640039, -6.92110063300002, 0.0 ], [ 107.605089905000099, -6.920920724999966, 0.0 ] ], [ [ 107.605208558000058, -6.919344589999941, 0.0 ], [ 107.605286789000047, -6.918930679999978, 0.0 ], [ 107.60540077800006, -6.918658849999957, 0.0 ], [ 107.605409956000116, -6.918650503999977, 0.0 ] ], [ [ 107.606563994000027, -6.915427533999939, 0.0 ], [ 107.606496906000075, -6.915447629, 0.0 ], [ 107.606091763000038, -6.915532190999983, 0.0 ], [ 107.605842809000052, -6.915589853999958, 0.0 ], [ 107.605675776000083, -6.915617996999977, 0.0 ], [ 107.605386289000108, -6.915695175999968, 0.0 ], [ 107.605226428000023, -6.915750027999977, 0.0 ] ], [ [ 107.605274629000107, -6.916586377999987, 0.0 ], [ 107.605260375000086, -6.916399754999912, 0.0 ], [ 107.605215321000088, -6.915987134999966, 0.0 ], [ 107.605226428000023, -6.915750027999977, 0.0 ] ], [ [ 107.606154038000042, -6.916576663999894, 0.0 ], [ 107.606027228000116, -6.916520624999965, 0.0 ], [ 107.605911565000056, -6.916518510999968, 0.0 ], [ 107.605556923000023, -6.916562891, 0.0 ], [ 107.605274629000107, -6.916586377999987, 0.0 ] ], [ [ 107.605612907000122, -6.917410168999936, 0.0 ], [ 107.605541965000029, -6.917314648999938, 0.0 ], [ 107.605352353000058, -6.916931034, 0.0 ], [ 107.60528348800004, -6.916709655999973, 0.0 ], [ 107.605274629000107, -6.916586377999987, 0.0 ] ], [ [ 107.605409956000116, -6.918650503999977, 0.0 ], [ 107.605410766, -6.918649768, 0.0 ], [ 107.605593277000096, -6.918386563999988, 0.0 ], [ 107.605698291000081, -6.918227725999902, 0.0 ], [ 107.605756614000114, -6.918162530999926, 0.0 ] ], [ [ 107.605409956000116, -6.918650503999977, 0.0 ], [ 107.60662310500004, -6.919051255999918, 0.0 ] ], [ [ 107.606285098000043, -6.917328218, 0.0 ], [ 107.606187410000047, -6.917361981999946, 0.0 ], [ 107.605941262000016, -6.917384168999916, 0.0 ], [ 107.605612907000122, -6.917410168999936, 0.0 ] ], [ [ 107.605756614000114, -6.918162530999926, 0.0 ], [ 107.605760773000014, -6.918131131999903, 0.0 ], [ 107.605707526000046, -6.917745070999935, 0.0 ], [ 107.605621777000053, -6.917426395999946, 0.0 ], [ 107.605612907000122, -6.917410168999936, 0.0 ] ], [ [ 107.605756614000114, -6.918162530999926, 0.0 ], [ 107.606071114000102, -6.918179098999964, 0.0 ], [ 107.606507290000053, -6.918250231999899, 0.0 ] ], [ [ 107.606154038000042, -6.916576663999894, 0.0 ], [ 107.606178725000035, -6.916495865999959, 0.0 ], [ 107.606349831000074, -6.916337984999952, 0.0 ], [ 107.606458498000094, -6.916200580999952, 0.0 ], [ 107.606515793000128, -6.916065238999945, 0.0 ], [ 107.606542224000094, -6.91570389999989, 0.0 ], [ 107.606563994000027, -6.915427533999939, 0.0 ] ], [ [ 107.606285098000043, -6.917328218, 0.0 ], [ 107.606210525000094, -6.917019232, 0.0 ], [ 107.606154299000067, -6.916769300999935, 0.0 ], [ 107.606154038000042, -6.916576663999894, 0.0 ] ], [ [ 107.606507290000053, -6.918250231999899, 0.0 ], [ 107.606469709000052, -6.918018344999986, 0.0 ], [ 107.606285098000043, -6.917328218, 0.0 ] ], [ [ 107.606457548000023, -6.921104819999922, 0.0 ], [ 107.606457547722414, -6.92110496812546, 0.0 ] ], [ [ 107.606539055000013, -6.919984780999886, 0.0 ], [ 107.606510327000123, -6.920458070999967, 0.0 ], [ 107.606445289000064, -6.920797471999983, 0.0 ], [ 107.606437466000045, -6.920965292999924, 0.0 ], [ 107.606457548000023, -6.921104819999922, 0.0 ] ], [ [ 107.606457777565694, -6.921104983969999, 0.0 ], [ 107.606457548000023, -6.921104819999922, 0.0 ] ], [ [ 107.60759195554364, -6.921229575901489, 0.0 ], [ 107.607485222000051, -6.921217802999944, 0.0 ], [ 107.607267462078156, -6.921203252106947, 0.0 ], [ 107.606782059804033, -6.921170648501042, 0.0 ], [ 107.60648626530606, -6.92112502845409, 0.0 ], [ 107.606458304632127, -6.921108840695494, 0.0 ] ], [ [ 107.60662310500004, -6.919051255999918, 0.0 ], [ 107.606638872000104, -6.918892275, 0.0 ], [ 107.606507290000053, -6.918250231999899, 0.0 ] ], [ [ 107.606507290000053, -6.918250231999899, 0.0 ], [ 107.6071004920001, -6.918289057, 0.0 ], [ 107.608095030000058, -6.918394441999929, 0.0 ], [ 107.608448634000098, -6.91843941299992, 0.0 ], [ 107.608607373000083, -6.918351661999942, 0.0 ], [ 107.608674805000064, -6.918273909999904, 0.0 ], [ 107.608763242000094, -6.918166139999958, 0.0 ], [ 107.608850279000109, -6.918068461999958, 0.0 ], [ 107.608943924000044, -6.91804785099994, 0.0 ], [ 107.609065275000049, -6.918031921999955, 0.0 ], [ 107.60919971800007, -6.91797747899998, 0.0 ], [ 107.60927223500002, -6.917956322999917, 0.0 ], [ 107.60930849, -6.917948288999963, 0.0 ], [ 107.609425537, -6.917922515999962, 0.0 ] ], [ [ 107.606539055000013, -6.919984780999886, 0.0 ], [ 107.606571274000018, -6.919453995999934, 0.0 ], [ 107.606622822000105, -6.919054113999977, 0.0 ], [ 107.60662310500004, -6.919051255999918, 0.0 ] ], [ [ 107.608148598000042, -6.920231661999974, 0.0 ], [ 107.607687477000084, -6.920171528999973, 0.0 ], [ 107.607044793000028, -6.920074364999927, 0.0 ], [ 107.607033942000015, -6.920074352000015, 0.0 ], [ 107.606879407000108, -6.920048568000013, 0.0 ], [ 107.606539055000013, -6.919984780999886, 0.0 ] ], [ [ 107.60682082600006, -6.915295832999966, 0.0 ], [ 107.606569124000103, -6.91542313199993, 0.0 ], [ 107.606563994000027, -6.915427533999939, 0.0 ] ], [ [ 107.60662310500004, -6.919051255999918, 0.0 ], [ 107.606660667000128, -6.91901610499994, 0.0 ], [ 107.606757139000109, -6.918965159999988, 0.0 ], [ 107.606862786000065, -6.918956329999968, 0.0 ], [ 107.607142139000089, -6.918994741999949, 0.0 ], [ 107.607482299000068, -6.919018757999893, 0.0 ], [ 107.607627426000093, -6.919058908999929, 0.0 ], [ 107.60778920000007, -6.919169752999952, 0.0 ], [ 107.608022702000113, -6.919314814999964, 0.0 ], [ 107.608300237000066, -6.919509708999925, 0.0 ], [ 107.608407015000111, -6.919619453999946, 0.0 ] ], [ [ 107.606954192000074, -6.915294189999919, 0.0 ], [ 107.60682082600006, -6.915295832999966, 0.0 ] ], [ [ 107.607113555161376, -6.914910931562669, 0.0 ], [ 107.60711352600002, -6.914911085999929, 0.0 ], [ 107.607049605000071, -6.915249666999966, 0.0 ], [ 107.607029554000093, -6.91527072400002, 0.0 ], [ 107.606954192000074, -6.915294189999919, 0.0 ] ], [ [ 107.60736948800006, -6.91548468899996, 0.0 ], [ 107.607187167000077, -6.91547216, 0.0 ], [ 107.607022052, -6.915467587999967, 0.0 ], [ 107.606934204000112, -6.915346351999972, 0.0 ], [ 107.606954192000074, -6.915294189999919, 0.0 ] ], [ [ 107.607415279941108, -6.914956039986068, 0.0 ], [ 107.607395, -6.915115855, 0.0 ], [ 107.60736948800006, -6.91548468899996, 0.0 ] ], [ [ 107.608975586000085, -6.916243482999949, 0.0 ], [ 107.608947654000076, -6.916288413999936, 0.0 ], [ 107.608887564000085, -6.916332887999975, 0.0 ], [ 107.608791033000088, -6.916330154999926, 0.0 ], [ 107.608240051000067, -6.916251030999952, 0.0 ], [ 107.608025469000069, -6.916160428999916, 0.0 ], [ 107.607711977000065, -6.915877477999953, 0.0 ], [ 107.607622852000063, -6.915742883999918, 0.0 ], [ 107.607483233000067, -6.915550955999937, 0.0 ], [ 107.60736948800006, -6.91548468899996, 0.0 ] ], [ [ 107.608009321000068, -6.921261622000017, 0.0 ], [ 107.6079569337317, -6.921257994671716, 0.0 ], [ 107.607748864488528, -6.921243585390633, 0.0 ], [ 107.607716029091833, -6.921243309462929, 0.0 ], [ 107.607591907613283, -6.921229605053663, 0.0 ] ], [ [ 107.608148598000042, -6.920231661999974, 0.0 ], [ 107.608094581000017, -6.920502845999941, 0.0 ], [ 107.608070934000111, -6.920692369999902, 0.0 ], [ 107.608009321000068, -6.921261622000017, 0.0 ] ], [ [ 107.608106247217762, -6.921280233727956, 0.0 ], [ 107.608009321000068, -6.921261622000017, 0.0 ] ], [ [ 107.608303821268464, -6.921310492162847, 0.0 ], [ 107.608292901943585, -6.921308980256326, 0.0 ], [ 107.608219689126301, -6.921301990087841, 0.0 ], [ 107.608106742719727, -6.921280283775178, 0.0 ] ], [ [ 107.608407015000111, -6.919619453999946, 0.0 ], [ 107.608345163000052, -6.919695756999953, 0.0 ], [ 107.608264804000072, -6.919840253999919, 0.0 ], [ 107.608152002000068, -6.920212539, 0.0 ], [ 107.608148598000042, -6.920231661999974, 0.0 ] ], [ [ 107.608303821268464, -6.921310492162847, 0.0 ], [ 107.608296569020297, -6.921309743144169, 0.0 ] ], [ [ 107.608740892677119, -6.921354919579331, 0.0 ], [ 107.608316815677867, -6.921312291388766, 0.0 ], [ 107.608303821268464, -6.921310492162847, 0.0 ] ], [ [ 107.608320274262553, -6.921312175881896, 0.0 ], [ 107.608307925000091, -6.921310915999921, 0.0 ], [ 107.608303821268464, -6.921310492162847, 0.0 ] ], [ [ 107.608407015000111, -6.919619453999946, 0.0 ], [ 107.608462112000055, -6.919671664999914, 0.0 ], [ 107.608643942000086, -6.919676866999989, 0.0 ], [ 107.608895556000036, -6.919721034999913, 0.0 ], [ 107.609038286000029, -6.919729863999933, 0.0 ] ], [ [ 107.608740892677119, -6.921354919579331, 0.0 ], [ 107.608740862150654, -6.921354984289516, 0.0 ] ], [ [ 107.609038286000029, -6.919729863999933, 0.0 ], [ 107.608942212000073, -6.920003185999988, 0.0 ], [ 107.608893269000106, -6.920308889999969, 0.0 ], [ 107.608849668000062, -6.920736164999973, 0.0 ], [ 107.608807001000073, -6.921127485999932, 0.0 ], [ 107.60874825400002, -6.921339314999962, 0.0 ], [ 107.608740892677119, -6.921354919579331, 0.0 ] ], [ [ 107.609571803407505, -6.921438859090373, 0.0 ], [ 107.609418315000127, -6.9214287359999, 0.0 ], [ 107.608909046846861, -6.921373369555897, 0.0 ], [ 107.608741376437408, -6.921354968206882, 0.0 ], [ 107.608740892677119, -6.921354919579331, 0.0 ] ], [ [ 107.608976583000072, -6.916099077999903, 0.0 ], [ 107.608963628000069, -6.91562698400001, 0.0 ], [ 107.608969507000026, -6.915223564999938, 0.0 ], [ 107.608974512000088, -6.915153511, 0.0 ], [ 107.608974522405305, -6.915152948031733, 0.0 ] ], [ [ 107.608976583000072, -6.916099077999903, 0.0 ], [ 107.608975447000077, -6.91610621399996, 0.0 ], [ 107.608975586000085, -6.916243482999949, 0.0 ] ], [ [ 107.608975586000085, -6.916243482999949, 0.0 ], [ 107.60900284500012, -6.916371023999933, 0.0 ], [ 107.609425537, -6.917922515999962, 0.0 ] ], [ [ 107.610058614000081, -6.916538414999927, 0.0 ], [ 107.610030906000091, -6.916528491, 0.0 ], [ 107.60901086800007, -6.916114387999926, 0.0 ], [ 107.608976583000072, -6.916099077999903, 0.0 ] ], [ [ 107.609038286000029, -6.919729863999933, 0.0 ], [ 107.609912707, -6.919698795999938, 0.0 ], [ 107.60996286200006, -6.919714126999963, 0.0 ] ], [ [ 107.609425537, -6.917922515999962, 0.0 ], [ 107.609477589000051, -6.918113575999961, 0.0 ], [ 107.609627695000128, -6.918602548999917, 0.0 ] ], [ [ 107.609808287000064, -6.921454455999896, 0.0 ], [ 107.609808019014267, -6.921454438325307, 0.0 ], [ 107.609571734872674, -6.921438850228698, 0.0 ] ], [ [ 107.610858099000055, -6.918437597999947, 0.0 ], [ 107.610787298000062, -6.918456746999933, 0.0 ], [ 107.610397546000058, -6.918518239999958, 0.0 ], [ 107.609627695000128, -6.918602548999917, 0.0 ] ], [ [ 107.609627695000128, -6.918602548999917, 0.0 ], [ 107.609936659000113, -6.919690062000015, 0.0 ], [ 107.60996286200006, -6.919714126999963, 0.0 ] ], [ [ 107.60996286200006, -6.919714126999963, 0.0 ], [ 107.609988148000113, -6.919737348999931, 0.0 ], [ 107.610007581000033, -6.919743910999941, 0.0 ], [ 107.610006616000035, -6.919775590999986, 0.0 ], [ 107.609960306000019, -6.920088147999913, 0.0 ], [ 107.609922623000017, -6.920398977999962, 0.0 ], [ 107.609896833, -6.920654147999937, 0.0 ], [ 107.609877622000027, -6.920893863999964, 0.0 ], [ 107.609811958000094, -6.921418233999919, 0.0 ], [ 107.609808287000064, -6.921454455999896, 0.0 ] ], [ [ 107.609808398169648, -6.921463147900242, 0.0 ], [ 107.609808287000064, -6.921454455999896, 0.0 ] ], [ [ 107.609965993000046, -6.921507855999963, 0.0 ], [ 107.609831710000037, -6.921482819999934, 0.0 ], [ 107.609808993996026, -6.921476849906584, 0.0 ] ], [ [ 107.61124368200008, -6.919961825999941, 0.0 ], [ 107.610809790000062, -6.919891643, 0.0 ], [ 107.609972047000014, -6.919716932999929, 0.0 ], [ 107.60996286200006, -6.919714126999963, 0.0 ] ], [ [ 107.609965993000046, -6.921507855999963, 0.0 ], [ 107.609965970442829, -6.921507995485356, 0.0 ] ], [ [ 107.6105403330873, -6.921581642815178, 0.0 ], [ 107.610180709833188, -6.921535370576471, 0.0 ], [ 107.610967101268457, -6.921633149319801, 0.0 ], [ 107.609965993000046, -6.921507855999963, 0.0 ] ], [ [ 107.610175348061077, -6.915296102946153, 0.0 ], [ 107.610175265000052, -6.915296530999935, 0.0 ], [ 107.610058614000081, -6.916538414999927, 0.0 ] ], [ [ 107.610058614000081, -6.916538414999927, 0.0 ], [ 107.610474736000043, -6.916770302999929, 0.0 ], [ 107.610923110000016, -6.917012902999929, 0.0 ] ], [ [ 107.610923110000016, -6.917012902999929, 0.0 ], [ 107.61091458300011, -6.917064025999895, 0.0 ], [ 107.610824936000071, -6.91725420099991, 0.0 ], [ 107.610800094000055, -6.917459707999949, 0.0 ], [ 107.610858099000055, -6.918437597999947, 0.0 ] ], [ [ 107.611457340000072, -6.918514111999972, 0.0 ], [ 107.611418206000039, -6.918508280999934, 0.0 ], [ 107.611038609000076, -6.918459379999973, 0.0 ], [ 107.610858099000055, -6.918437597999947, 0.0 ] ], [ [ 107.610923110000016, -6.917012902999929, 0.0 ], [ 107.611344904000106, -6.917235153000021, 0.0 ], [ 107.611583247000013, -6.91737264099994, 0.0 ] ], [ [ 107.61220319133416, -6.920135719669835, 0.0 ], [ 107.612203671271047, -6.92013568967378, 0.0 ], [ 107.612167248814202, -6.920355328125639, 0.0 ], [ 107.612146646212352, -6.920508376025091, 0.0 ], [ 107.612102497779816, -6.920882166087214, 0.0 ], [ 107.611998052911773, -6.921747572726318, 0.0 ], [ 107.611788276000098, -6.921732950999935, 0.0 ], [ 107.611131928000063, -6.921650651999965, 0.0 ], [ 107.610966147682845, -6.921632468277936, 0.0 ] ], [ [ 107.611457340000072, -6.918514111999972, 0.0 ], [ 107.611436568000045, -6.918668619999966, 0.0 ], [ 107.61131441200007, -6.919562886999884, 0.0 ], [ 107.61124368200008, -6.919961825999941, 0.0 ] ], [ [ 107.612203025424577, -6.920135728865917, 0.0 ], [ 107.611535320000044, -6.920007757999922, 0.0 ], [ 107.61124368200008, -6.919961825999941, 0.0 ] ], [ [ 107.611583247000013, -6.91737264099994, 0.0 ], [ 107.611555834000058, -6.917700926999924, 0.0 ], [ 107.611479420000038, -6.918263517999932, 0.0 ], [ 107.611457340000072, -6.918514111999972, 0.0 ] ], [ [ 107.611583247000013, -6.91737264099994, 0.0 ], [ 107.612105361000047, -6.917661726999967, 0.0 ], [ 107.612305985000035, -6.917777687999969, 0.0 ], [ 107.612479200000067, -6.917900250999896, 0.0 ], [ 107.612508300304796, -6.917942122495032, 0.0 ], [ 107.612640556801239, -6.917993432972998, 0.0 ], [ 107.61270236460679, -6.917974301985566, 0.0 ], [ 107.613129132787947, -6.917775634039162, 0.0 ], [ 107.613305726518078, -6.917697638475018, 0.0 ], [ 107.61342934212918, -6.917610813224368, 0.0 ], [ 107.61351395995824, -6.917262040607349, 0.0 ], [ 107.613714835326221, -6.91629592574206, 0.0 ] ], [ [ 107.612203855222845, -6.920126905975224, 0.0 ], [ 107.61220319133416, -6.920135719669835, 0.0 ] ], [ [ 107.61220319133416, -6.920135719669835, 0.0 ], [ 107.612203188397558, -6.920135758655706, 0.0 ], [ 107.612202935463827, -6.920135735661731, 0.0 ], [ 107.61220319133416, -6.920135719669835, 0.0 ] ], [ [ 107.612246399254559, -6.919635668902227, 0.0 ], [ 107.612205590000087, -6.920104366999922, 0.0 ], [ 107.612203838061433, -6.92012706266717, 0.0 ] ], [ [ 107.612504294503907, -6.917941857486382, 0.0 ], [ 107.612462665000038, -6.918060681999936, 0.0 ], [ 107.612407167952327, -6.918333306921536, 0.0 ], [ 107.612354189833283, -6.918686494381824, 0.0 ], [ 107.612260006510539, -6.91947776305914, 0.0 ], [ 107.61224640557414, -6.919635651190395, 0.0 ] ], [ [ 107.613604750232952, -6.916861811276942, 0.0 ], [ 107.613578862000026, -6.916996991999945, 0.0 ], [ 107.61351473296304, -6.917262265149322, 0.0 ] ], [ [ 107.613715949000081, -6.916291061999978, 0.0 ], [ 107.613715772672435, -6.916291591851733, 0.0 ] ], [ [ 107.613797245733622, -6.915789690382334, 0.0 ], [ 107.613770270307825, -6.916005079525187, 0.0 ], [ 107.613762908000055, -6.91606566099998, 0.0 ], [ 107.613715949000081, -6.916291061999978, 0.0 ] ], [ [ 107.613715975850383, -6.916291065190565, 0.0 ], [ 107.613715949000081, -6.916291061999978, 0.0 ] ] ] } },
{ "type": "Feature", "properties": { "NAMRJL": "JALANBRAGA", "KONRJL": null, "MATRJL": null, "FGSRJL": null, "UTKRJL": null, "TOLRJL": null, "WLYRJL": null, "AUTRJL": null, "KLSRJL": null, "SPCRJL": null, "JPARJL": null, "ARHRJL": null, "STARJL": null, "KLLRJL": null, "MEDRJL": null, "LOCRJL": null, "JARRJL": null, "FCODE": null, "REMARK": null, "SRS_ID": null, "LCODE": null, "METADATA": null, "SHAPE_Leng": null }, "geometry": { "type": "MultiLineString", "coordinates": [ [ [ 107.609916598513919, -6.919623245940719, 0.0 ], [ 107.609625218859193, -6.918607831992432, 0.0 ], [ 107.608999782731644, -6.916356261933185, 0.0 ] ] ] } }
]
}
