{
"type": "FeatureCollection",
"name": "minimarket_braga",
"crs": { "type": "name", "properties": { "name": "urn:ogc:def:crs:OGC:1.3:CRS84" } },
"features": [
{ "type": "Feature", "properties": { "fid": 2159, "NAMA": "INDOMARET FRESH HOTEL PREANGER", "TIPE_1": "PERDAGANGAN DAN RETAIL", "TIPE_2": "MINIMARKET", "TIPE_3": "INDOMARET", "TELEPON": "", "ALAMAT": "GRAHA PRAMA PREANGER HOTEL, JL. ASIA AFRIKA NO.81, BRAGA, KEC. SUMUR BANDUNG, KOTA BANDUNG, JAWA BARAT 40112", "ID_PROV": 32, "PROVINSI": "JAWA BARAT", "ID_KABKOT": 32.73, "KABKOT": "KOTA BANDUNG", "ID_KEC": "32.73.19", "KECAMATAN": "SUMUR BANDUNG", "ID_DESA": "32.73.19.1001", "DESA": "BRAGA", "LATITUDE": -6.9211058, "LONGITUDE": 107.6115853, "STATUS": "BUKA", "TANGGAL PENGUMPULAN": "Q4 2023", "TANGGAL UPDATE": "28/01/2025" }, "geometry": { "type": "MultiPoint", "coordinates": [ [ 107.6115853, -6.9211058 ] ] } },
{ "type": "Feature", "properties": { "fid": 4084, "NAMA": "ALFAMART", "TIPE_1": "PERDAGANGAN DAN RETAIL", "TIPE_2": "MINIMARKET", "TIPE_3": "ALFAMART", "TELEPON": "1 500 959", "ALAMAT": "JL. ASIA AFRIKA NO.15-17, BRAGA, SUMURBANDUNG, BANDUNG CITY, WEST JAVA 40111", "ID_PROV": 32, "PROVINSI": "JAWA BARAT", "ID_KABKOT": 32.73, "KABKOT": "KOTA BANDUNG", "ID_KEC": "32.73.19", "KECAMATAN": "SUMUR BANDUNG", "ID_DESA": "32.73.19.1001", "DESA": "BRAGA", "LATITUDE": -6.9208015, "LONGITUDE": 107.6049538, "STATUS": "BUKA", "TANGGAL PENGUMPULAN": "Q4 2023", "TANGGAL UPDATE": "28/01/2025" }, "geometry": { "type": "MultiPoint", "coordinates": [ [ 107.6049538, -6.9208015 ] ] } },
{ "type": "Feature", "properties": { "fid": 4085, "NAMA": "BANDUNG", "TIPE_1": "PERDAGANGAN DAN RETAIL", "TIPE_2": "MINIMARKET", "TIPE_3": "LAINNYA", "TELEPON": "", "ALAMAT": "JL. ASIA AFRIKA NO.47, BRAGA, KEC. SUMUR BANDUNG, KOTA BANDUNG, JAWA BARAT 40111", "ID_PROV": 32, "PROVINSI": "JAWA BARAT", "ID_KABKOT": 32.73, "KABKOT": "KOTA BANDUNG", "ID_KEC": "32.73.19", "KECAMATAN": "SUMUR BANDUNG", "ID_DESA": "32.73.19.1001", "DESA": "BRAGA", "LATITUDE": -6.9208745, "LONGITUDE": 107.6058222, "STATUS": "BUKA", "TANGGAL PENGUMPULAN": "Q4 2023", "TANGGAL UPDATE": "28/01/2025" }, "geometry": { "type": "MultiPoint", "coordinates": [ [ 107.6058222, -6.9208745 ] ] } },
{ "type": "Feature", "properties": { "fid": 4086, "NAMA": "CIRCLE K", "TIPE_1": "PERDAGANGAN DAN RETAIL", "TIPE_2": "MINIMARKET", "TIPE_3": "CIRCLE K", "TELEPON": "0878-7761-2429", "ALAMAT": "JL. ASIA AFRIKA NO.49, BRAGA, KEC. SUMUR BANDUNG, KOTA BANDUNG, JAWA BARAT 40400", "ID_PROV": 32, "PROVINSI": "JAWA BARAT", "ID_KABKOT": 32.73, "KABKOT": "KOTA BANDUNG", "ID_KEC": "32.73.19", "KECAMATAN": "SUMUR BANDUNG", "ID_DESA": "32.73.19.1001", "DESA": "BRAGA", "LATITUDE": -6.9208433, "LONGITUDE": 107.6059841, "STATUS": "BUKA", "TANGGAL PENGUMPULAN": "Q4 2023", "TANGGAL UPDATE": "28/01/2025" }, "geometry": { "type": "MultiPoint", "coordinates": [ [ 107.6059841, -6.9208433 ] ] } },
{ "type": "Feature", "properties": { "fid": 4087, "NAMA": "CIRCLE K KPWI", "TIPE_1": "PERDAGANGAN DAN RETAIL", "TIPE_2": "MINIMARKET", "TIPE_3": "CIRCLE K", "TELEPON": "0878-7701-2284", "ALAMAT": "JL. ASIA AFRIKA NO.69, BRAGA, KEC. SUMUR BANDUNG, KOTA BANDUNG, JAWA BARAT 40112", "ID_PROV": 32, "PROVINSI": "JAWA BARAT", "ID_KABKOT": 32.73, "KABKOT": "KOTA BANDUNG", "ID_KEC": "32.73.19", "KECAMATAN": "SUMUR BANDUNG", "ID_DESA": "32.73.19.1001", "DESA": "BRAGA", "LATITUDE": -6.9214264, "LONGITUDE": 107.6099792, "STATUS": "BUKA", "TANGGAL PENGUMPULAN": "Q4 2023", "TANGGAL UPDATE": "28/01/2025" }, "geometry": { "type": "MultiPoint", "coordinates": [ [ 107.6099792, -6.9214264 ] ] } },
{ "type": "Feature", "properties": { "fid": 4840, "NAMA": "CIRCLE K BRAGA", "TIPE_1": "PERDAGANGAN DAN RETAIL", "TIPE_2": "MINIMARKET", "TIPE_3": "CIRCLE K", "TELEPON": "", "ALAMAT": "JL. BRAGA NO.25, BRAGA, KEC. SUMUR BANDUNG, KOTA BANDUNG, JAWA BARAT 40111", "ID_PROV": 32, "PROVINSI": "JAWA BARAT", "ID_KABKOT": 32.73, "KABKOT": "KOTA BANDUNG", "ID_KEC": "32.73.19", "KECAMATAN": "SUMUR BANDUNG", "ID_DESA": "32.73.19.1001", "DESA": "BRAGA", "LATITUDE": -6.9195712, "LONGITUDE": 107.6098189, "STATUS": "BUKA", "TANGGAL PENGUMPULAN": "Q4 2023", "TANGGAL UPDATE": "28/01/2025" }, "geometry": { "type": "MultiPoint", "coordinates": [ [ 107.6098189, -6.9195712 ] ] } },
{ "type": "Feature", "properties": { "fid": 4841, "NAMA": "INDOMARET BRAGA", "TIPE_1": "PERDAGANGAN DAN RETAIL", "TIPE_2": "MINIMARKET", "TIPE_3": "INDOMARET", "TELEPON": "0816-500-580", "ALAMAT": "JL. BRAGA NO.52, BRAGA, SUMURBANDUNG, BANDUNG CITY, WEST JAVA 40111", "ID_PROV": 32, "PROVINSI": "JAWA BARAT", "ID_KABKOT": 32.73, "KABKOT": "KOTA BANDUNG", "ID_KEC": "32.73.19", "KECAMATAN": "SUMUR BANDUNG", "ID_DESA": "32.73.19.1001", "DESA": "BRAGA", "LATITUDE": -6.917631, "LONGITUDE": 107.6094801, "STATUS": "BUKA", "TANGGAL PENGUMPULAN": "Q4 2023", "TANGGAL UPDATE": "28/01/2025" }, "geometry": { "type": "MultiPoint", "coordinates": [ [ 107.6094801, -6.917631 ] ] } },
{ "type": "Feature", "properties": { "fid": 4842, "NAMA": "ALFAMART BRAGA", "TIPE_1": "PERDAGANGAN DAN RETAIL", "TIPE_2": "MINIMARKET", "TIPE_3": "ALFAMART", "TELEPON": "1 500 959", "ALAMAT": "JL. BRAGA NO.66 RT01, RW.04, BRAGA, KEC. SUMUR BANDUNG, KOTA BANDUNG, JAWA BARAT 40111", "ID_PROV": 32, "PROVINSI": "JAWA BARAT", "ID_KABKOT": 32.73, "KABKOT": "KOTA BANDUNG", "ID_KEC": "32.73.19", "KECAMATAN": "SUMUR BANDUNG", "ID_DESA": "32.73.19.1001", "DESA": "BRAGA", "LATITUDE": -6.91716, "LONGITUDE": 107.60929, "STATUS": "BUKA", "TANGGAL PENGUMPULAN": "Q4 2023", "TANGGAL UPDATE": "28/01/2025" }, "geometry": { "type": "MultiPoint", "coordinates": [ [ 107.60929, -6.91716 ] ] } },
{ "type": "Feature", "properties": { "fid": 7751, "NAMA": "STARMART CIUMBULEUIT", "TIPE_1": "PERDAGANGAN DAN RETAIL", "TIPE_2": "MINIMARKET", "TIPE_3": "LAINNYA", "TELEPON": "(022) 82062174", "ALAMAT": "JL. JAWA, BRAGA, KEC. SUMUR BANDUNG, KOTA BANDUNG, JAWA BARAT 40111", "ID_PROV": 32, "PROVINSI": "JAWA BARAT", "ID_KABKOT": 32.73, "KABKOT": "KOTA BANDUNG", "ID_KEC": "32.73.19", "KECAMATAN": "SUMUR BANDUNG", "ID_DESA": "32.73.19.1001", "DESA": "BRAGA", "LATITUDE": -6.920198, "LONGITUDE": 107.608231, "STATUS": "BUKA", "TANGGAL PENGUMPULAN": "Q4 2023", "TANGGAL UPDATE": "28/01/2025" }, "geometry": { "type": "MultiPoint", "coordinates": [ [ 107.608231, -6.920198 ] ] } },
{ "type": "Feature", "properties": { "fid": 17675, "NAMA": "ALFAMART SUNIARAJA BRAGA", "TIPE_1": "PERDAGANGAN DAN RETAIL", "TIPE_2": "MINIMARKET", "TIPE_3": "ALFAMART", "TELEPON": "0815-8546-3879", "ALAMAT": "JL. SUNIARAJA, BRAGA, KEC. SUMUR BANDUNG, KOTA BANDUNG, JAWA BARAT 40111", "ID_PROV": 32, "PROVINSI": "JAWA BARAT", "ID_KABKOT": 32.73, "KABKOT": "KOTA BANDUNG", "ID_KEC": "32.73.19", "KECAMATAN": "SUMUR BANDUNG", "ID_DESA": "32.73.19.1001", "DESA": "BRAGA", "LATITUDE": -6.9163117, "LONGITUDE": 107.6082009, "STATUS": "BUKA", "TANGGAL PENGUMPULAN": "Q4 2023", "TANGGAL UPDATE": "28/01/2025" }, "geometry": { "type": "MultiPoint", "coordinates": [ [ 107.6082009, -6.9163117 ] ] } },
{ "type": "Feature", "properties": { "fid": 17676, "NAMA": "INDOMARET | BRAGA", "TIPE_1": "PERDAGANGAN DAN RETAIL", "TIPE_2": "MINIMARKET", "TIPE_3": "INDOMARET", "TELEPON": "0888-9424-195", "ALAMAT": "JL. SUNIARAJA, BRAGA, KEC. SUMUR BANDUNG, KOTA BANDUNG, JAWA BARAT 40111", "ID_PROV": 32, "PROVINSI": "JAWA BARAT", "ID_KABKOT": 32.73, "KABKOT": "KOTA BANDUNG", "ID_KEC": "32.73.19", "KECAMATAN": "SUMUR BANDUNG", "ID_DESA": "32.73.19.1001", "DESA": "BRAGA", "LATITUDE": -6.916311, "LONGITUDE": 107.6079669, "STATUS": "BUKA", "TANGGAL PENGUMPULAN": "Q4 2023", "TANGGAL UPDATE": "28/01/2025" }, "geometry": { "type": "MultiPoint", "coordinates": [ [ 107.6079669, -6.916311 ] ] } },
{ "type": "Feature", "properties": { "fid": 18281, "NAMA": "ALFAMART EXPRESS TERA RESIDENCE", "TIPE_1": "PERDAGANGAN DAN RETAIL", "TIPE_2": "MINIMARKET", "TIPE_3": "ALFAMART", "TELEPON": "", "ALAMAT": "JL. TERA NO.28, BRAGA, KEC. SUMUR BANDUNG, KOTA BANDUNG, JAWA BARAT 40111", "ID_PROV": 32, "PROVINSI": "JAWA BARAT", "ID_KABKOT": 32.73, "KABKOT": "KOTA BANDUNG", "ID_KEC": "32.73.19", "KECAMATAN": "SUMUR BANDUNG", "ID_DESA": "32.73.19.1001", "DESA": "BRAGA", "LATITUDE": -6.9159333, "LONGITUDE": 107.6124576, "STATUS": "BUKA", "TANGGAL PENGUMPULAN": "Q4 2023", "TANGGAL UPDATE": "28/01/2025" }, "geometry": { "type": "MultiPoint", "coordinates": [ [ 107.6124576, -6.9159333 ] ] } },
{ "type": "Feature", "properties": { "fid": 11220, "NAMA": "ZIEBAR MINIMARKET", "TIPE_1": "PERDAGANGAN DAN RETAIL", "TIPE_2": "MINIMARKET", "TIPE_3": "LAINNYA", "TELEPON": "(022) 4205974", "ALAMAT": "JL. NARIPAN NO.21, BRAGA, KEC. SUMUR BANDUNG, KOTA BANDUNG, JAWA BARAT 40111", "ID_PROV": 32, "PROVINSI": "JAWA BARAT", "ID_KABKOT": 32.73, "KABKOT": "KOTA BANDUNG", "ID_KEC": "32.73.19", "KECAMATAN": "SUMUR BANDUNG", "ID_DESA": "32.73.19.1001", "DESA": "BRAGA", "LATITUDE": -6.919459, "LONGITUDE": 107.6108728, "STATUS": "BUKA", "TANGGAL PENGUMPULAN": "Q4 2023", "TANGGAL UPDATE": "28/01/2025" }, "geometry": { "type": "MultiPoint", "coordinates": [ [ 107.6108728, -6.919459 ] ] } },
{ "type": "Feature", "properties": { "fid": 20403, "NAMA": "YOMART PASIRWANGI", "TIPE_1": "PERDAGANGAN DAN RETAIL", "TIPE_2": "MINIMARKET", "TIPE_3": "YOMART", "TELEPON": "0857-0316-7715", "ALAMAT": "KP PASIRWANGI, RT.01/RW.04, BRAGA, SUMURBANDUNG, GARUT, WEST JAVA 44181", "ID_PROV": 32, "PROVINSI": "JAWA BARAT", "ID_KABKOT": 32.73, "KABKOT": "KOTA BANDUNG", "ID_KEC": "32.73.19", "KECAMATAN": "SUMUR BANDUNG", "ID_DESA": "32.73.19.1001", "DESA": "BRAGA", "LATITUDE": -6.9173248, "LONGITUDE": 107.610112, "STATUS": "BUKA", "TANGGAL PENGUMPULAN": "Q4 2023", "TANGGAL UPDATE": "28/01/2025" }, "geometry": { "type": "MultiPoint", "coordinates": [ [ 107.610112, -6.9173248 ] ] } }
]
}
